NORAD_CAT_ID,OBJECT_NAME,OBJECT_TYPE,EPOCH,MEAN_MOTION,ECCENTRICITY,INCLINATION,RA_OF_ASC_NODE,ARG_OF_PERICENTER,MEAN_ANOMALY,BSTAR,MEAN_MOTION_DOT,MEAN_MOTION_DDOT,TLE_LINE0,TLE_LINE1,TLE_LINE2,SEMIMAJOR_AXIS,PERIOD,APOGEE,PERIGEE,DECAYED
53175.0,STARLINK-4292,PAYLOAD,2023-02-26 13:16:03,15.08873705,0.0001411,53.214,104.2534,91.2545,268.8609,0.0012629,0.00019887,0.0,0 STARLINK-4292,1 53175U 22083AV  23057.55282377  .00019887  00000-0  12629-2 0  9997,2 53175  53.2140 104.2534 0001411  91.2545 268.8609 15.08873705 34077,6917.777,95.435,540.618,538.666,0.0
53175.0,STARLINK-4292,PAYLOAD,2023-02-26 19:37:37,15.08848803,0.0001478,53.2147,103.0641,108.1024,252.0129,0.00051036,7.846e-05,0.0,0 STARLINK-4292,1 53175U 22083AV  23057.81779600  .00007846  00000-0  51036-3 0  9994,2 53175  53.2147 103.0641 0001478 108.1024 252.0129 15.08848803 34751,6917.853,95.437,540.741,538.696,0.0
53175.0,STARLINK-4292,PAYLOAD,2023-02-27 05:09:55,15.08846298,0.0001623,53.2142,101.2826,95.1136,265.0041,0.00039632,6.026e-05,0.0,0 STARLINK-4292,1 53175U 22083AV  23058.21522980  .00006026  00000-0  39632-3 0  9993,2 53175  53.2142 101.2826 0001623  95.1136 265.0041 15.08846298 34171,6917.861,95.437,540.849,538.603,0.0
53175.0,STARLINK-4292,PAYLOAD,2023-02-27 11:31:28,15.0887541,0.0001619,53.2151,100.0935,106.3922,253.7249,0.0020364,0.00032302,0.0,0 STARLINK-4292,1 53175U 22083AV  23058.48018819  .00032302  00000-0  20364-2 0  9990,2 53175  53.2151 100.0935 0001619 106.3922 253.7249 15.08875410 34859,6917.772,95.435,540.757,538.517,0.0
53175.0,STARLINK-4292,PAYLOAD,2023-02-27 19:28:23,15.08860077,0.0001265,53.2137,98.6039,93.8627,266.251,0.0012673,0.0001995,0.0,0 STARLINK-4292,1 53175U 22083AV  23058.81138701  .00019950  00000-0  12673-2 0  9998,2 53175  53.2137  98.6039 0001265  93.8627 266.2510 15.08860077 34267,6917.819,95.436,540.559,538.809,0.0
53175.0,STARLINK-4292,PAYLOAD,2023-02-28 11:22:14,15.08874192,0.0001551,53.2148,95.6321,102.3757,257.7408,0.00089676,0.00014026,0.0,0 STARLINK-4292,1 53175U 22083AV  23059.47377692  .00014026  00000-0  89676-3 0  9992,2 53175  53.2148  95.6321 0001551 102.3757 257.7408 15.08874192 35005,6917.776,95.435,540.714,538.568,0.0
53175.0,STARLINK-4292,PAYLOAD,2023-02-28 19:19:11,15.08810967,0.0002189,53.2145,94.1431,86.0766,274.0477,-0.0013159,-0.00021154,0.0,0 STARLINK-4292,1 53175U 22083AV  23059.80498958 -.00021154  00000-0 -13159-2 0  9992,2 53175  53.2145  94.1431 0002189  86.0766 274.0477 15.08810967 34416,6917.969,95.439,541.348,538.32,0.0
53175.0,STARLINK-4292,PAYLOAD,2023-03-01 09:37:40,15.08795392,0.0001077,53.2142,91.4693,84.3156,275.7959,-0.0006746,-0.00010995,0.0,0 STARLINK-4292,1 53175U 22083AV  23060.40116150 -.00010995  00000-0 -67460-3 0  9997,2 53175  53.2142  91.4693 0001077  84.3156 275.7959 15.08795392 35140,6918.017,95.44,540.627,539.137,0.0
53175.0,STARLINK-4292,PAYLOAD,2023-03-01 19:10:00,15.08807319,0.00011,53.2151,89.6833,81.0894,279.0222,0.00070169,0.00010887,0.0,0 STARLINK-4292,1 53175U 22083AV  23060.79861178  .00010887  00000-0  70169-3 0  9994,2 53175  53.2151  89.6833 0001100  81.0894 279.0222 15.08807319 35205,6917.98,95.44,540.606,539.084,0.0
53175.0,STARLINK-4292,PAYLOAD,2023-03-02 19:00:46,15.08866025,8.82e-05,53.2143,85.2217,78.044,282.0651,0.0014038,0.0002214,0.0,0 STARLINK-4292,1 53175U 22083AV  23061.79220826  .00022140  00000-0  14038-2 0  9991,2 53175  53.2143  85.2217 0000882  78.0440 282.0651 15.08866025 35358,6917.801,95.436,540.276,539.056,0.0
53175.0,STARLINK-4292,PAYLOAD,2023-03-03 12:29:59,15.08906429,9.93e-05,53.2144,81.9515,72.6434,287.4666,0.0020823,0.00033068,0.0,0 STARLINK-4292,1 53175U 22083AV  23062.52082766  .00033068  00000-0  20823-2 0  9992,2 53175  53.2144  81.9515 0000993  72.6434 287.4666 15.08906429 34828,6917.677,95.433,540.229,538.855,0.0
53175.0,STARLINK-4292,PAYLOAD,2023-03-03 18:51:32,15.08873975,7.8e-05,53.2146,80.7619,72.5761,287.5316,0.0005658,8.737e-05,0.0,0 STARLINK-4292,1 53175U 22083AV  23062.78578723  .00008737  00000-0  56580-3 0  9998,2 53175  53.2146  80.7619 0000780  72.5761 287.5316 15.08873975 35506,6917.777,95.435,540.181,539.102,0.0
53175.0,STARLINK-4292,PAYLOAD,2023-03-04 12:20:46,15.08865769,0.000145,53.2142,77.4893,114.7602,245.3541,0.0015218,0.00024032,0.0,0 STARLINK-4292,1 53175U 22083AV  23063.51442322  .00024032  00000-0  15218-2 0  9993,2 53175  53.2142  77.4893 0001450 114.7602 245.3541 15.08865769 35613,6917.802,95.436,540.67,538.664,0.0
53175.0,STARLINK-4292,PAYLOAD,2023-03-05 01:03:52,15.08838346,0.0001652,53.2147,75.1107,98.9996,261.1183,0.00057056,8.804e-05,0.0,0 STARLINK-4292,1 53175U 22083AV  23064.04435387  .00008804  00000-0  57056-3 0  9991,2 53175  53.2147  75.1107 0001652  98.9996 261.1183 15.08838346 35691,6917.885,95.438,540.893,538.608,0.0
53175.0,STARLINK-4292,PAYLOAD,2023-03-05 07:25:25,15.08830237,0.0001335,53.2152,73.9211,85.8786,274.2359,0.0015099,0.00023817,0.0,0 STARLINK-4292,1 53175U 22083AV  23064.30931866  .00023817  00000-0  15099-2 0  9994,2 53175  53.2152  73.9211 0001335  85.8786 274.2359 15.08830237 35094,6917.91,95.438,540.699,538.852,0.0
53175.0,STARLINK-4292,PAYLOAD,2023-03-05 16:57:44,15.08836072,0.0001427,53.2151,72.1369,80.3035,279.8118,0.0011996,0.00018853,0.0,0 STARLINK-4292,1 53175U 22083AV  23064.70676224  .00018853  00000-0  11996-2 0  9998,2 53175  53.2151  72.1369 0001427  80.3035 279.8118 15.08836072 35791,6917.892,95.438,540.745,538.77,0.0
53175.0,STARLINK-4292,PAYLOAD,2023-03-06 00:54:40,15.08837557,0.0001522,53.215,70.6494,100.7159,259.4004,0.00078204,0.00012179,0.0,0 STARLINK-4292,1 53175U 22083AV  23065.03796330  .00012179  00000-0  78204-3 0  9997,2 53175  53.2150  70.6494 0001522 100.7159 259.4004 15.08837557 35845,6917.888,95.438,540.806,538.7,0.0
53175.0,STARLINK-4292,PAYLOAD,2023-03-06 16:48:31,15.08827339,0.0001579,53.2152,67.6764,93.04,267.0772,-7.4649e-05,-1.475e-05,0.0,0 STARLINK-4292,1 53175U 22083AV  23065.70036670 -.00001475  00000-0 -74649-4 0  9994,2 53175  53.2152  67.6764 0001579  93.0400 267.0772 15.08827339 35943,6917.919,95.438,540.876,538.692,0.0
53175.0,STARLINK-4292,PAYLOAD,2023-03-07 03:56:13,15.08842917,0.0001085,53.2157,65.5952,99.2728,260.8386,0.00047536,7.286e-05,0.0,0 STARLINK-4292,1 53175U 22083AV  23066.16404446  .00007286  00000-0  47536-3 0  9993,2 53175  53.2157  65.5952 0001085  99.2728 260.8386 15.08842917 36017,6917.871,95.437,540.487,538.986,0.0
53175.0,STARLINK-4292,PAYLOAD,2023-03-07 10:17:45,15.08861136,0.0001119,53.2157,64.406,97.7631,262.3488,0.0012203,0.00019198,0.0,0 STARLINK-4292,1 53175U 22083AV  23066.42900117  .00019198  00000-0  12203-2 0  9995,2 53175  53.2157  64.4060 0001119  97.7631 262.3488 15.08861136 36057,6917.816,95.436,540.455,538.907,0.0
53175.0,STARLINK-4292,PAYLOAD,2023-03-07 23:00:50,15.0885779,0.0001191,53.2147,62.0259,102.2055,257.907,0.0010276,0.00016112,0.0,0 STARLINK-4292,1 53175U 22083AV  23066.95892291  .00016112  00000-0  10276-2 0  9997,2 53175  53.2147  62.0259 0001191 102.2055 257.9070 15.08857790 35497,6917.826,95.436,540.515,538.867,0.0
53175.0,STARLINK-4292,PAYLOAD,2023-03-08 08:33:09,15.0884956,0.0001229,53.215,60.2395,94.3498,265.7635,0.00097934,0.00015337,0.0,0 STARLINK-4292,1 53175U 22083AV  23067.35636325  .00015337  00000-0  97934-3 0  9991,2 53175  53.2150  60.2395 0001229  94.3498 265.7635 15.08849560 36194,6917.851,95.437,540.566,538.866,0.0
53175.0,STARLINK-4292,PAYLOAD,2023-03-08 16:30:05,15.08846104,0.0001747,53.2146,58.7548,84.0174,276.1018,0.00061467,9.51e-05,0.0,0 STARLINK-4292,1 53175U 22083AV  23067.68756563  .00009510  00000-0  61467-3 0  9992,2 53175  53.2146  58.7548 0001747  84.0174 276.1018 15.08846104 36241,6917.862,95.437,540.935,538.518,0.0
53175.0,STARLINK-4292,PAYLOAD,2023-03-08 22:51:38,15.08865056,0.0001571,53.2148,57.5661,84.7283,275.3888,0.0017554,0.00027779,0.0,0 STARLINK-4292,1 53175U 22083AV  23067.95252419  .00027779  00000-0  17554-2 0  9997,2 53175  53.2148  57.5661 0001571  84.7283 275.3888 15.08865056 36286,6917.804,95.436,540.756,538.582,0.0
53175.0,STARLINK-4292,PAYLOAD,2023-03-09 16:20:51,15.08877454,0.0001499,53.215,54.2949,90.4325,269.6839,0.0017213,0.00027241,0.0,0 STARLINK-4292,1 53175U 22083AV  23068.68115541  .00027241  00000-0  17213-2 0  9998,2 53175  53.2150  54.2949 0001499  90.4325 269.6839 15.08877454 36391,6917.766,95.435,540.668,538.594,0.0
53175.0,STARLINK-4292,PAYLOAD,2023-03-10 03:28:34,15.08835657,0.00018,53.2162,52.2112,111.9071,248.2112,0.00099434,0.0001557,0.0,0 STARLINK-4292,1 53175U 22083AV  23069.14484289  .00015570  00000-0  99434-3 0  9996,2 53175  53.2162  52.2112 0001800 111.9071 248.2112 15.08835657 36461,6917.894,95.438,541.004,538.513,0.0
53175.0,STARLINK-4292,PAYLOAD,2023-03-10 16:11:40,15.08832449,0.0001773,53.2159,49.8331,99.3856,260.7336,0.0013294,0.00020928,0.0,0 STARLINK-4292,1 53175U 22083AV  23069.67476916  .00020928  00000-0  13294-2 0  9994,2 53175  53.2159  49.8331 0001773  99.3856 260.7336 15.08832449 36543,6917.903,95.438,540.995,538.542,0.0
53175.0,STARLINK-4292,PAYLOAD,2023-03-11 09:40:54,15.08858862,0.0001898,53.2167,46.5612,106.4037,253.7164,0.0016146,0.00025515,0.0,0 STARLINK-4292,1 53175U 22083AV  23070.40340867  .00025515  00000-0  16146-2 0  9998,2 53175  53.2167  46.5612 0001898 106.4037 253.7164 15.08858862 36017,6917.823,95.436,541.001,538.375,0.0
53175.0,STARLINK-4292,PAYLOAD,2023-03-11 22:23:59,15.08845754,0.0001907,53.2172,44.1827,98.6877,261.4331,0.00087471,0.00013663,0.0,0 STARLINK-4292,1 53175U 22083AV  23070.93333318  .00013663  00000-0  87471-3 0  9990,2 53175  53.2172  44.1827 0001907  98.6877 261.4331 15.08845754 36096,6917.863,95.437,541.047,538.409,0.0
53175.0,STARLINK-4292,PAYLOAD,2023-03-12 03:10:09,15.08857827,0.0001714,53.2171,43.2912,106.7195,253.3985,0.0018342,0.00029038,0.0,0 STARLINK-4292,1 53175U 22083AV  23071.13205128  .00029038  00000-0  18342-2 0  9993,2 53175  53.2171  43.2912 0001714 106.7195 253.3985 15.08857827 36763,6917.826,95.436,540.877,538.505,0.0
